{
  "type": "FeatureCollection",
  "features": [
    {
      "type": "Feature",
      "properties": {
        "norad_id": 33822,
        "name": "COSMOS 2251 DEB",
        "group": "cosmos-2251-debris",
        "lat": -74.05941818466124,
        "lon": 107.40747650164039,
        "alt_km": 756.1494379485775,
        "timestamp": "2025-12-10T20:49:52.945319+00:00",
        "meta_object_name": "COSMOS 2251 DEB",
        "meta_object_id": "1993-036BP",
        "meta_epoch": "2025-12-10T08:30:14.657184",
        "meta_mean_motion": 14.13051479,
        "meta_eccentricity": 0.01535173,
        "meta_inclination": 74.0694,
        "meta_ra_of_asc_node": 197.893,
        "meta_arg_of_pericenter": 244.7874,
        "meta_mean_anomaly": 292.7166,
        "meta_ephemeris_type": 0,
        "meta_classification_type": "U",
        "meta_norad_cat_id": 33822,
        "meta_element_set_no": 999,
        "meta_rev_at_epoch": 86020,
        "meta_bstar": 0.0017246125,
        "meta_mean_motion_dot": 3.577e-05,
        "meta_mean_motion_ddot": 0,
        "tle_line1": "1 33822U 93036BP  25344.35433631  .00003577  00000+0  17246-2 0  9998",
        "tle_line2": "2 33822  74.0694 197.8930 0153517 244.7874 292.7166 14.13051479860209"
      },
      "geometry": {
        "type": "Point",
        "coordinates": [
          107.40747650164039,
          -74.05941818466124
        ]
      }
    },
    {
      "type": "Feature",
      "properties": {
        "norad_id": 33823,
        "name": "COSMOS 2251 DEB",
        "group": "cosmos-2251-debris",
        "lat": -3.9673121341611974,
        "lon": -26.234219844947397,
        "alt_km": 908.1024066529399,
        "timestamp": "2025-12-10T20:49:52.945329+00:00",
        "meta_object_name": "COSMOS 2251 DEB",
        "meta_object_id": "1993-036BQ",
        "meta_epoch": "2025-12-10T11:30:49.033152",
        "meta_mean_motion": 13.98941141,
        "meta_eccentricity": 0.02093151,
        "meta_inclination": 73.8095,
        "meta_ra_of_asc_node": 153.2914,
        "meta_arg_of_pericenter": 278.8168,
        "meta_mean_anomaly": 113.0941,
        "meta_ephemeris_type": 0,
        "meta_classification_type": "U",
        "meta_norad_cat_id": 33823,
        "meta_element_set_no": 999,
        "meta_rev_at_epoch": 85578,
        "meta_bstar": 0.0010377107,
        "meta_mean_motion_dot": 1.781e-05,
        "meta_mean_motion_ddot": 0,
        "tle_line1": "1 33823U 93036BQ  25344.47973418  .00001781  00000+0  10377-2 0  9997",
        "tle_line2": "2 33823  73.8095 153.2914 0209315 278.8168 113.0941 13.98941141855781"
      },
      "geometry": {
        "type": "Point",
        "coordinates": [
          -26.234219844947397,
          -3.9673121341611974
        ]
      }
    },
    {
      "type": "Feature",
      "properties": {
        "norad_id": 33825,
        "name": "COSMOS 2251 DEB",
        "group": "cosmos-2251-debris",
        "lat": 72.56932873048994,
        "lon": 97.60687637818758,
        "alt_km": 647.9993364897555,
        "timestamp": "2025-12-10T20:49:52.945339+00:00",
        "meta_object_name": "COSMOS 2251 DEB",
        "meta_object_id": "1993-036BS",
        "meta_epoch": "2025-12-10T12:56:34.560096",
        "meta_mean_motion": 14.69731821,
        "meta_eccentricity": 0.00844498,
        "meta_inclination": 73.9852,
        "meta_ra_of_asc_node": 32.0694,
        "meta_arg_of_pericenter": 359.6529,
        "meta_mean_anomaly": 144.0805,
        "meta_ephemeris_type": 0,
        "meta_classification_type": "U",
        "meta_norad_cat_id": 33825,
        "meta_element_set_no": 999,
        "meta_rev_at_epoch": 88847,
        "meta_bstar": 0.0010981643,
        "meta_mean_motion_dot": 6.888e-05,
        "meta_mean_motion_ddot": 0,
        "tle_line1": "1 33825U 93036BS  25344.53928889  .00006888  00000+0  10982-2 0  9993",
        "tle_line2": "2 33825  73.9852  32.0694 0084449 359.6529 144.0805 14.69731821888478"
      },
      "geometry": {
        "type": "Point",
        "coordinates": [
          97.60687637818758,
          72.56932873048994
        ]
      }
    },
    {
      "type": "Feature",
      "properties": {
        "norad_id": 33826,
        "name": "COSMOS 2251 DEB",
        "group": "cosmos-2251-debris",
        "lat": 73.71732723721841,
        "lon": 155.39541891805004,
        "alt_km": 653.6962716408525,
        "timestamp": "2025-12-10T20:49:52.945350+00:00",
        "meta_object_name": "COSMOS 2251 DEB",
        "meta_object_id": "1993-036BT",
        "meta_epoch": "2025-12-10T05:49:44.311872",
        "meta_mean_motion": 14.51683648,
        "meta_eccentricity": 0.0083473,
        "meta_inclination": 74.0648,
        "meta_ra_of_asc_node": 54.5699,
        "meta_arg_of_pericenter": 99.751,
        "meta_mean_anomaly": 328.1851,
        "meta_ephemeris_type": 0,
        "meta_classification_type": "U",
        "meta_norad_cat_id": 33826,
        "meta_element_set_no": 999,
        "meta_rev_at_epoch": 87733,
        "meta_bstar": 0.0015925,
        "meta_mean_motion_dot": 6.665e-05,
        "meta_mean_motion_ddot": 0,
        "tle_line1": "1 33826U 93036BT  25344.24287398  .00006665  00000+0  15925-2 0  9990",
        "tle_line2": "2 33826  74.0648  54.5699 0083473  99.7510 328.1851 14.51683648877339"
      },
      "geometry": {
        "type": "Point",
        "coordinates": [
          155.39541891805004,
          73.71732723721841
        ]
      }
    },
    {
      "type": "Feature",
      "properties": {
        "norad_id": 33828,
        "name": "COSMOS 2251 DEB",
        "group": "cosmos-2251-debris",
        "lat": 38.10312652741126,
        "lon": -105.46636068786661,
        "alt_km": 739.2930614715178,
        "timestamp": "2025-12-10T20:49:52.945360+00:00",
        "meta_object_name": "COSMOS 2251 DEB",
        "meta_object_id": "1993-036BV",
        "meta_epoch": "2025-12-10T11:30:23.594400",
        "meta_mean_motion": 14.44321553,
        "meta_eccentricity": 0.0029444,
        "meta_inclination": 74.0468,
        "meta_ra_of_asc_node": 242.2932,
        "meta_arg_of_pericenter": 315.5479,
        "meta_mean_anomaly": 224.7395,
        "meta_ephemeris_type": 0,
        "meta_classification_type": "U",
        "meta_norad_cat_id": 33828,
        "meta_element_set_no": 999,
        "meta_rev_at_epoch": 88280,
        "meta_bstar": 0.00074623451,
        "meta_mean_motion_dot": 2.555e-05,
        "meta_mean_motion_ddot": 0,
        "tle_line1": "1 33828U 93036BV  25344.47943975  .00002555  00000+0  74623-3 0  9992",
        "tle_line2": "2 33828  74.0468 242.2932 0029444 315.5479 224.7395 14.44321553882806"
      },
      "geometry": {
        "type": "Point",
        "coordinates": [
          -105.46636068786661,
          38.10312652741126
        ]
      }
    },
    {
      "type": "Feature",
      "properties": {
        "norad_id": 33830,
        "name": "COSMOS 2251 DEB",
        "group": "cosmos-2251-debris",
        "lat": 52.70577233705659,
        "lon": -103.8811941610009,
        "alt_km": 619.7153299081319,
        "timestamp": "2025-12-10T20:49:52.945371+00:00",
        "meta_object_name": "COSMOS 2251 DEB",
        "meta_object_id": "1993-036BX",
        "meta_epoch": "2025-12-10T03:13:46.175808",
        "meta_mean_motion": 14.76844121,
        "meta_eccentricity": 0.00423057,
        "meta_inclination": 74.0322,
        "meta_ra_of_asc_node": 235.4736,
        "meta_arg_of_pericenter": 356.0494,
        "meta_mean_anomaly": 121.7534,
        "meta_ephemeris_type": 0,
        "meta_classification_type": "U",
        "meta_norad_cat_id": 33830,
        "meta_element_set_no": 999,
        "meta_rev_at_epoch": 89433,
        "meta_bstar": 0.0012963686,
        "meta_mean_motion_dot": 9.218e-05,
        "meta_mean_motion_ddot": 0,
        "tle_line1": "1 33830U 93036BX  25344.13456222  .00009218  00000+0  12964-2 0  9994",
        "tle_line2": "2 33830  74.0322 235.4736 0042305 356.0494 121.7534 14.76844121894330"
      },
      "geometry": {
        "type": "Point",
        "coordinates": [
          -103.8811941610009,
          52.70577233705659
        ]
      }
    },
    {
      "type": "Feature",
      "properties": {
        "norad_id": 33832,
        "name": "COSMOS 2251 DEB",
        "group": "cosmos-2251-debris",
        "lat": -33.51318249331927,
        "lon": 44.46072218218077,
        "alt_km": 681.6924617525574,
        "timestamp": "2025-12-10T20:49:52.945381+00:00",
        "meta_object_name": "COSMOS 2251 DEB",
        "meta_object_id": "1993-036BZ",
        "meta_epoch": "2025-12-10T02:30:09.067104",
        "meta_mean_motion": 14.60591167,
        "meta_eccentricity": 0.00250627,
        "meta_inclination": 74.0536,
        "meta_ra_of_asc_node": 215.0028,
        "meta_arg_of_pericenter": 246.5967,
        "meta_mean_anomaly": 274.4841,
        "meta_ephemeris_type": 0,
        "meta_classification_type": "U",
        "meta_norad_cat_id": 33832,
        "meta_element_set_no": 999,
        "meta_rev_at_epoch": 88386,
        "meta_bstar": 0.0017925202,
        "meta_mean_motion_dot": 8.734e-05,
        "meta_mean_motion_ddot": 0,
        "tle_line1": "1 33832U 93036BZ  25344.10427161  .00008734  00000+0  17925-2 0  9997",
        "tle_line2": "2 33832  74.0536 215.0028 0025062 246.5967 274.4841 14.60591167883861"
      },
      "geometry": {
        "type": "Point",
        "coordinates": [
          44.46072218218077,
          -33.51318249331927
        ]
      }
    }
  ]
}